0 FENGYUN 1C DEB
1 38494U 99025ESD 18195.53792298 +.00000655 +00000-0 +33776-3 0  9997
2 38494 098.4211 044.6165 0490155 163.0147 198.8086 13.69721833296984
0 FENGYUN 1C DEB
1 38494U 99025ESD 18195.02656506  .00000651  00000-0  33573-3 0  9993
2 38494  98.4217  44.1670 0490135 164.3793 197.3113 13.69721125389910
0 FENGYUN 1C DEB
1 38495U 99025ESE 18195.13744586  .00000856  00000-0  96887-3 0  9996
2 38495  99.2310 320.1753 0271412 275.9142  81.1127 13.58620765384933
0 FENGYUN 1C DEB
1 38495U 99025ESE 18195.57930029 +.00000854 +00000-0 +96644-3 0  9992
2 38495 099.2311 320.5914 0271428 274.7862 082.2337 13.58621487242503
0 FENGYUN 1C DEB
1 38496U 99025ESF 18195.29514544  .00000216  00000-0  16063-3 0  9991
2 38496  98.9719 230.1146 0084298  32.7976 327.8384 14.03613454429750
0 FENGYUN 1C DEB
1 38499U 99025ESJ 18195.02741533 +.00000469 +00000-0 +49398-3 0  9992
2 38499 098.3890 035.4935 0244567 180.4625 179.6333 13.66607435384924
0 FENGYUN 1C DEB
1 38503U 99025ESN 18195.73026951  .00000751  00000-0  16079-3 0  9990
2 38503  99.5170  29.1877 0116117 195.2196 164.5495 14.58460059408813
0 FENGYUN 1C DEB
1 38504U 99025ESP 18195.71219057  .00001145  00000-0  69088-3 0  9996
2 38504  98.0177  23.8419 0214637 262.6810  94.9917 13.97538383468860
0 FENGYUN 1C DEB
1 38517U 99025ETC 18195.13423248  .00000954  00000-0  25049-3 0  9991
2 38517  98.6285 264.5133 0122079 101.7156 259.7763 14.47240314446384
0 FENGYUN 1C DEB
1 38517U 99025ETC 18194.65027146 +.00000931 +00000-0 +24465-3 0  9990
2 38517 098.6285 264.0200 0122107 103.1552 258.3298 14.47239183224319
0 FENGYUN 1C DEB
1 38519U 99025ETE 18195.62136707  .00000230  00000-0  24570-3 0  9993
2 38519  99.4128 131.8537 0192161 332.5016  26.6069 13.76541383473946
0 TRANSIT 5B-1 DEB
1 38522U 63038R   18195.82104549  .00001427  00000-0  10752-2 0  9998
2 38522  90.1128 334.4139 0072588 236.2732 123.1511 13.92660069738548
0 TRANSIT 5E-5 DEB
1 38524U 64083N   18195.23986475  .00010028  00000-0  21072-2 0  9996
2 38524  89.8070 131.6975 0049855  27.5839 332.8001 14.58755795783093
0 TRANSIT 5E-5 DEB
1 38526U 64083Q   18195.35322489  .00006144  00000-0  19630-2 0  9991
2 38526  89.8895 159.8978 0065654 211.3137 148.4147 14.38371574697435
0 TRANSIT 5E-5 DEB
1 38526U 64083Q   18194.86624308 +.00006347 +00000-0 +20282-2 0  9991
2 38526 089.8896 159.9042 0065605 213.2081 146.4995 14.38365910697104
0 TRANSIT 5E-5 DEB
1 38527U 64083R   18194.89627362 +.00006467 +00000-0 +21621-2 0  9999
2 38527 089.8853 157.5007 0044717 251.0700 134.4920 14.36800608502401
0 TRANSIT 5E-5 DEB
1 38527U 64083R   18195.34109104 +.00006324 +00000-0 +21142-2 0  9999
2 38527 089.8852 157.4948 0044583 249.3109 275.5770 14.36805835502460
0 TRANSIT 5E-5 DEB
1 38527U 64083R   18195.87202494  .00006466  00000-0  21613-2 0  9993
2 38527  89.8848 157.4876 0044410 247.1638 142.2132 14.36813112502758
0 TRANSIT 16 DEB
1 38530U 67048H   18194.91556594 -.00000077 +00000-0 -81445-4 0  9993
2 38530 089.6381 092.4816 0052161 321.4878 172.6829 13.81871067363823
0 TRANSIT 16 DEB
1 38530U 67048H   18194.98715323 +.00000165 +00000-0 +14280-3 0  9995
2 38530 089.6376 092.4782 0052206 321.2311 168.8508 13.81871851363832
0 METEOR 2-1 DEB
1 38532U 75064E   18195.52637268  .00000068  00000-0  23553-4 0  9992
2 38532  81.2604 272.2119 0020244  59.9573 300.3610 14.24484234496534
0 METEOR 2-5 DEB
1 38534U 79095CB  18195.53277819  .00000509  00000-0  23905-3 0  9995
2 38534  81.2213 137.5847 0025235  47.4024 312.9275 14.18610009482446
0 NOAA 12 DEB
1 38546U 91032F   18195.30790601  .00000193  00000-0  85937-4 0  9990
2 38546  98.4718 231.7068 0010363 257.4885 163.0504 14.33210549344129
0 NOAA 12 DEB
1 38547U 91032G   18195.31257546  .00000051  00000-0  37171-4 0  9998
2 38547  98.4980 223.2343 0004037 227.5863 132.4977 14.28902965728773
0 OGO 5 DEB
1 38549U 68014C   18195.14094623  .00065468 -51340-6  28373-3 0  9996
2 38549  48.9622 243.4612 5374074 119.0003 304.8738  5.17242466 84370
0 OGO 5 DEB
1 38549U 68014C   18195.52742882  .00064435 -45370-6  28248-3 0  9995
2 38549  48.9625 243.1501 5373691 119.2741 304.5677  5.17292938 84392
0 ECHOSTAR 17
1 38551U 12035A   18194.48838019 -.00000087 +00000-0 +00000-0 0  9993
2 38551 000.0238 048.0002 0002043 061.5713 250.4505 01.00269163022040
0 ECHOSTAR 17
1 38551U 12035A   18194.48837562 -.00000087 +00000-0 +00000-0 0  9995
2 38551 000.0236 046.5414 0002121 066.8816 246.5993 01.00269586022043
0 METEOSAT 10 (MSG 3)
1 38552U 12035B   18194.13171018 +.00000052 +00000-0 +00000-0 0  9996
2 38552 001.0776 346.8291 0002118 094.0635 266.8966 01.00268141021850
0 METEOSAT 10 (MSG 3)
1 38552U 12035B   18195.12930396  .00000048  00000-0  00000+0 0  9992
2 38552   1.0768 346.8706 0002130  93.5311 267.4913  1.00268447 22186
0 ARIANE 5 R/B
1 38553U 12035C   18195.34375162 +.00002746 +00000-0 +52945-3 0  9997
2 38553 005.9954 213.7657 7204763 234.5092 035.7634 02.38550095051497
0 ARIANE 5 R/B
1 38553U 12035C   18194.50622659 +.00003027 +00000-0 +58439-3 0  9997
2 38553 005.9976 214.1621 7204835 233.7517 036.5242 02.38545318051474
0 ARIANE 5 DEB (SYLDA)
1 38554U 12035D   18194.88429348 +.00001804 +00000-0 +69940-3 0  9999
2 38554 005.9943 083.4259 6815587 136.8105 303.0483 02.86588788057364
0 ARIANE 5 DEB (SYLDA)
1 38554U 12035D   18195.23266101 +.00001690 +00000-0 +66561-3 0  9994
2 38554 005.9946 083.2320 6815591 137.1869 302.4667 02.86589956057376
0 BREEZE-M DEB
1 38565U 08011L   18195.19846761 -.00000081 +00000-0 -50963-3 0  9990
2 38565 049.0076 226.2283 6521222 120.5839 318.9576 03.10151798094027
0 BREEZE-M DEB
1 38569U 08011Q   18195.50043502  .00000582  00000-0  31235-1 0  9994
2 38569  49.9153  18.2907 6393303 351.7521   1.3473  3.01436501 80764
0 BREEZE-M DEB
1 38569U 08011Q   18194.83698788 -.00002866  00000-0 -13086+0 0  9992
2 38569  49.9152  18.5058 6393693 351.5772   1.3851  3.01429113 80740
0 BREEZE-M DEB
1 38572U 08011T   18194.82157021 -.00000054 +00000-0 +00000-0 0  9994
2 38572 048.9487 339.4884 6405974 038.1563 318.5086 03.03150538083287
0 BREEZE-M DEB
1 38572U 08011T   18194.82157021 -.00000054  00000-0  00000+0 0  9993
2 38572  48.9487 339.4884 6405974  38.1563 318.5086  3.03150538 83580
0 BREEZE-M DEB
1 38573U 08011U   18195.37236028 -.00000082  00000-0  00000+0 0  9991
2 38573  49.3588  12.2419 6349622 358.7703  10.8107  3.02056925 80365
0 BREEZE-M DEB
1 38574U 08011V   18195.53243676 -.00000072  00000-0  00000+0 0  9996
2 38574  49.1630  28.8344 6308201 350.1897   1.7211  3.01742511 75686
0 BREEZE-M DEB
1 38576U 08011X   18195.24799586 -.00000053 +00000-0 +54146-4 0  9996
2 38576 049.1615 176.4292 6444659 160.6443 244.3469 03.21824738056180
0 BREEZE-M DEB
1 38580U 08011AB  18195.50306980 -.00000260  00000-0 -50469-2 0  9995
2 38580  48.5243  10.7459 6521390  25.3512 355.8833  2.93338353 77763
0 BREEZE-M DEB
1 38583U 08011AE  18195.36192045 +.00000135 +00000-0 +48584-3 0  9992
2 38583 049.1612 203.1284 6529254 133.7925 303.3393 03.12684443082802
0 BREEZE-M DEB
1 38584U 08011AF  18195.34532774 -.00000839 +00000-0 -78233-2 0  9994
2 38584 048.6748 253.9482 6508826 115.7774 344.4256 03.06349105042068
0 BREEZE-M DEB
1 38584U 08011AF  18194.66621557 -.00000862 +00000-0 -80974-2 0  9997
2 38584 048.6741 254.1951 6509087 115.5571 315.4623 03.06350172042037
0 BREEZE-M DEB
1 38585U 08011AG  18194.72124050 -.00000178 +00000-0 -57052-4 0  9994
2 38585 049.2536 146.8107 6453537 184.4241 164.5732 03.23761941084527
0 BREEZE-M DEB
1 38589U 08011AL  18195.51802987 -.00000305  00000-0 -17649-1 0  9995
2 38589  48.6612  10.2207 6386215  21.3153   2.4142  2.95234304 77863
0 BREEZE-M DEB
1 38592U 08011AP  18194.62244868 -.00000028  00000-0 -43144-3 0  9991
2 38592  48.7480 228.1634 6432077 141.1108 287.9166  3.13292504 80265
0 BREEZE-M DEB
1 38592U 08011AP  18194.62244868 -.00000028 +00000-0 -43144-3 0  9991
2 38592 048.7480 228.1634 6432077 141.1108 287.9166 03.13292504080300
0 BREEZE-M DEB
1 38593U 08011AQ  18195.54966936  .00000538  00000-0  10822-2 0  9991
2 38593  49.0254 250.3029 6624546  94.6165 337.9006  3.02991482 81723
0 BREEZE-M DEB
1 38593U 08011AQ  18195.54966936 +.00000538 +00000-0 +10822-2 0  9991
2 38593 049.0254 250.3029 6624546 094.6165 337.9006 03.02991482081666
0 BREEZE-M DEB
1 38600U 08011AX  18195.26651232 -.00000026  00000-0  32922-4 0  9999
2 38600  49.0036 199.9536 6507880 148.4246 276.5836  3.12785184 84004
0 BREEZE-M DEB
1 38601U 08011AY  18195.33338017  .00007784  00000-0  83587-3 0  9990
2 38601  48.0534 248.6796 5867547 120.3085 310.1646  4.27044646102019
0 BREEZE-M DEB
1 38601U 08011AY  18195.56745298 +.00007624 +00000-0 +82171-3 0  9999
2 38601 048.0535 248.5355 5867463 120.4415 310.0207 04.27048443101565
0 BREEZE-M DEB
1 38602U 08011AZ  18195.33101352 -.00000069 +00000-0 +85014-4 0  9999
2 38602 048.8008 179.1103 6482740 179.1106 183.3640 03.18086631088835
0 BREEZE-M DEB
1 38606U 08011BD  18195.25086375 -.00000702 +00000-0 -35630-2 0  9993
2 38606 048.6181 214.1145 6541663 159.6604 248.4772 03.07161276084709
0 BREEZE-M DEB
1 38606U 08011BD  18194.92558938 -.00000556  00000-0 -28367-2 0  9991
2 38606  48.6179 214.2348 6541711 159.5513 248.7921  3.07161502 84817
0 BREEZE-M DEB
1 38612U 08011BK  18195.56874691 -.00002509 +00000-0 -93641-1 0  9992
2 38612 047.9172 318.5814 6422047 093.7024 348.5517 03.00863013081985
0 BREEZE-M DEB
1 38612U 08011BK  18195.70064175 -.00002328  00000-0 -86798-1 0  9990
2 38612  47.9171 318.5363 6421865  93.7430 131.4072  3.00862725 82076
0 BREEZE-M DEB
1 38613U 08011BL  18194.32374299 -.00000143  00000-0  82612-4 0  9995
2 38613  48.8210 143.5141 6437454 211.0915 352.6453  3.30375013 76890
